ONEWEB-0207             
1 48242U 21031AJ  26144.88614375 -.00000069  00000+0 -22069-3 0  9994
2 48242  87.8949 294.3447 0002016 104.1423 255.9931 13.14501114245235
ONEWEB-0208             
1 48243U 21031AK  26144.94404011  .00000161  00000+0  39917-3 0  9997
2 48243  87.8944 294.3405 0001485 103.4328 256.6968 13.14502035245253
ONEWEB-0200             
1 48244U 21031AL  26144.90754532 -.00000253  00000+0 -71667-3 0  9992
2 48244  87.8940 294.3340 0001769 101.4479 258.6850 13.14501266245176
ONEWEB-0217             
1 48245U 21031AM  26144.92340841  .00000061  00000+0  12999-3 0  9997
2 48245  87.8948 294.3348 0001545 105.4647 254.6653 13.14501287245121
ONEWEB-0211             
1 48767U 21045A   26144.77679855  .00000041  00000+0  73149-4 0  9997
2 48767  87.8994 263.7512 0001222 107.2636 252.8628 13.16195033241368
ONEWEB-0223             
1 48768U 21045B   26144.84366782  .00000021  00000+0  22018-4 0  9995
2 48768  87.8997 263.8399 0001494  95.8072 264.3228 13.15547447241333
ONEWEB-0230             
1 48769U 21045C   26144.89118946 -.00000143  00000+0 -41362-3 0  9997
2 48769  87.8988 263.8461 0002061  98.7261 261.4103 13.15546864241609
ONEWEB-0237             
1 48770U 21045D   26144.88011081 -.00000080  00000+0 -24741-3 0  9992
2 48770  87.8988 263.8502 0001699  93.5187 266.6138 13.15550054241323
ONEWEB-0235             
1 48771U 21045E   26144.77869292  .00000139  00000+0  33564-3 0  9992
2 48771  87.8999 263.8541 0001527  91.9588 268.1718 13.15546968241304
ONEWEB-0242             
1 48772U 21045F   26144.84842031  .00000054  00000+0  10881-3 0  9996
2 48772  87.9000 263.8365 0001865  94.6692 265.4652 13.15546730241353
ONEWEB-0241             
1 48773U 21045G   26144.83574002 -.00000062  00000+0 -19896-3 0  9992
2 48773  87.8986 263.8600 0001470 101.9436 258.1859 13.15546853241262
ONEWEB-0243             
1 48774U 21045H   26144.79137084  .00000116  00000+0  27293-3 0  9991
2 48774  87.8991 263.8810 0001851  83.5472 276.5869 13.15547665241289
ONEWEB-0222             
1 48775U 21045J   26144.77473182  .00000153  00000+0  37174-3 0  9992
2 48775  87.8998 263.8501 0001625  99.1459 260.9856 13.15546662241325
ONEWEB-0244             
1 48776U 21045K   26144.80087423 -.00000081  00000+0 -24845-3 0  9999
2 48776  87.9004 263.8380 0001803  96.8296 263.3039 13.15546863241896
ONEWEB-0247             
1 48777U 21045L   26144.79771785 -.00000118  00000+0 -34799-3 0  9999
2 48777  87.8990 263.8740 0001594  75.9569 284.1739 13.15547445241332
ONEWEB-0245             
1 48778U 21045M   26144.79296288  .00000044  00000+0  82710-4 0  9993
2 48778  87.8999 263.8522 0001701 104.4367 255.6952 13.15547198241306
