[{"OBJECT_NAME":"ONEWEB-0207","OBJECT_ID":"2021-031AJ","EPOCH":"2026-05-24T21:16:02.820000","MEAN_MOTION":13.14501114,"ECCENTRICITY":0.0002016,"INCLINATION":87.8949,"RA_OF_ASC_NODE":294.3447,"ARG_OF_PERICENTER":104.1423,"MEAN_ANOMALY":255.9931,"EPHEMERIS_TYPE":0,"CLASSIFICATION_TYPE":"U","NORAD_CAT_ID":48242,"ELEMENT_SET_NO":999,"REV_AT_EPOCH":24523,"BSTAR":-0.00022069,"MEAN_MOTION_DOT":-6.9e-07,"MEAN_MOTION_DDOT":0.0},{"OBJECT_NAME":"ONEWEB-0208","OBJECT_ID":"2021-031AK","EPOCH":"2026-05-24T22:39:25.065504","MEAN_MOTION":13.14502035,"ECCENTRICITY":0.0001485,"INCLINATION":87.8944,"RA_OF_ASC_NODE":294.3405,"ARG_OF_PERICENTER":103.4328,"MEAN_ANOMALY":256.6968,"EPHEMERIS_TYPE":0,"CLASSIFICATION_TYPE":"U","NORAD_CAT_ID":48243,"ELEMENT_SET_NO":999,"REV_AT_EPOCH":24525,"BSTAR":0.00039917,"MEAN_MOTION_DOT":1.61e-06,"MEAN_MOTION_DDOT":0.0},{"OBJECT_NAME":"ONEWEB-0200","OBJECT_ID":"2021-031AL","EPOCH":"2026-05-24T21:46:51.915648","MEAN_MOTION":13.14501266,"ECCENTRICITY":0.0001769,"INCLINATION":87.894,"RA_OF_ASC_NODE":294.334,"ARG_OF_PERICENTER":101.4479,"MEAN_ANOMALY":258.685,"EPHEMERIS_TYPE":0,"CLASSIFICATION_TYPE":"U","NORAD_CAT_ID":48244,"ELEMENT_SET_NO":999,"REV_AT_EPOCH":24517,"BSTAR":-0.0007166700000000001,"MEAN_MOTION_DOT":-2.53e-06,"MEAN_MOTION_DDOT":0.0},{"OBJECT_NAME":"ONEWEB-0217","OBJECT_ID":"2021-031AM","EPOCH":"2026-05-24T22:09:42.486624","MEAN_MOTION":13.14501287,"ECCENTRICITY":0.0001545,"INCLINATION":87.8948,"RA_OF_ASC_NODE":294.3348,"ARG_OF_PERICENTER":105.4647,"MEAN_ANOMALY":254.6653,"EPHEMERIS_TYPE":0,"CLASSIFICATION_TYPE":"U","NORAD_CAT_ID":48245,"ELEMENT_SET_NO":999,"REV_AT_EPOCH":24512,"BSTAR":0.00012999,"MEAN_MOTION_DOT":6.1e-07,"MEAN_MOTION_DDOT":0.0},{"OBJECT_NAME":"ONEWEB-0211","OBJECT_ID":"2021-045A","EPOCH":"2026-05-24T18:38:35.394720","MEAN_MOTION":13.16195033,"ECCENTRICITY":0.0001222,"INCLINATION":87.8994,"RA_OF_ASC_NODE":263.7512,"ARG_OF_PERICENTER":107.2636,"MEAN_ANOMALY":252.8628,"EPHEMERIS_TYPE":0,"CLASSIFICATION_TYPE":"U","NORAD_CAT_ID":48767,"ELEMENT_SET_NO":999,"REV_AT_EPOCH":24136,"BSTAR":7.3149e-05,"MEAN_MOTION_DOT":4.1e-07,"MEAN_MOTION_DDOT":0.0},{"OBJECT_NAME":"ONEWEB-0223","OBJECT_ID":"2021-045B","EPOCH":"2026-05-24T20:14:52.899648","MEAN_MOTION":13.15547447,"ECCENTRICITY":0.0001494,"INCLINATION":87.8997,"RA_OF_ASC_NODE":263.8399,"ARG_OF_PERICENTER":95.8072,"MEAN_ANOMALY":264.3228,"EPHEMERIS_TYPE":0,"CLASSIFICATION_TYPE":"U","NORAD_CAT_ID":48768,"ELEMENT_SET_NO":999,"REV_AT_EPOCH":24133,"BSTAR":2.2017999999999998e-05,"MEAN_MOTION_DOT":2.1e-07,"MEAN_MOTION_DDOT":0.0},{"OBJECT_NAME":"ONEWEB-0230","OBJECT_ID":"2021-045C","EPOCH":"2026-05-24T21:23:18.769344","MEAN_MOTION":13.15546864,"ECCENTRICITY":0.0002061,"INCLINATION":87.8988,"RA_OF_ASC_NODE":263.8461,"ARG_OF_PERICENTER":98.7261,"MEAN_ANOMALY":261.4103,"EPHEMERIS_TYPE":0,"CLASSIFICATION_TYPE":"U","NORAD_CAT_ID":48769,"ELEMENT_SET_NO":999,"REV_AT_EPOCH":24160,"BSTAR":-0.00041362,"MEAN_MOTION_DOT":-1.43e-06,"MEAN_MOTION_DDOT":0.0},{"OBJECT_NAME":"ONEWEB-0237","OBJECT_ID":"2021-045D","EPOCH":"2026-05-24T21:07:21.573984","MEAN_MOTION":13.15550054,"ECCENTRICITY":0.0001699,"INCLINATION":87.8988,"RA_OF_ASC_NODE":263.8502,"ARG_OF_PERICENTER":93.5187,"MEAN_ANOMALY":266.6138,"EPHEMERIS_TYPE":0,"CLASSIFICATION_TYPE":"U","NORAD_CAT_ID":48770,"ELEMENT_SET_NO":999,"REV_AT_EPOCH":24132,"BSTAR":-0.00024741,"MEAN_MOTION_DOT":-8e-07,"MEAN_MOTION_DDOT":0.0},{"OBJECT_NAME":"ONEWEB-0235","OBJECT_ID":"2021-045E","EPOCH":"2026-05-24T18:41:19.068288","MEAN_MOTION":13.15546968,"ECCENTRICITY":0.0001527,"INCLINATION":87.8999,"RA_OF_ASC_NODE":263.8541,"ARG_OF_PERICENTER":91.9588,"MEAN_ANOMALY":268.1718,"EPHEMERIS_TYPE":0,"CLASSIFICATION_TYPE":"U","NORAD_CAT_ID":48771,"ELEMENT_SET_NO":999,"REV_AT_EPOCH":24130,"BSTAR":0.00033564,"MEAN_MOTION_DOT":1.39e-06,"MEAN_MOTION_DDOT":0.0},{"OBJECT_NAME":"ONEWEB-0242","OBJECT_ID":"2021-045F","EPOCH":"2026-05-24T20:21:43.514784","MEAN_MOTION":13.1554673,"ECCENTRICITY":0.0001865,"INCLINATION":87.9,"RA_OF_ASC_NODE":263.8365,"ARG_OF_PERICENTER":94.6692,"MEAN_ANOMALY":265.4652,"EPHEMERIS_TYPE":0,"CLASSIFICATION_TYPE":"U","NORAD_CAT_ID":48772,"ELEMENT_SET_NO":999,"REV_AT_EPOCH":24135,"BSTAR":0.00010881000000000001,"MEAN_MOTION_DOT":5.4e-07,"MEAN_MOTION_DDOT":0.0},{"OBJECT_NAME":"ONEWEB-0241","OBJECT_ID":"2021-045G","EPOCH":"2026-05-24T20:03:27.937728","MEAN_MOTION":13.15546853,"ECCENTRICITY":0.000147,"INCLINATION":87.8986,"RA_OF_ASC_NODE":263.86,"ARG_OF_PERICENTER":101.9436,"MEAN_ANOMALY":258.1859,"EPHEMERIS_TYPE":0,"CLASSIFICATION_TYPE":"U","NORAD_CAT_ID":48773,"ELEMENT_SET_NO":999,"REV_AT_EPOCH":24126,"BSTAR":-0.00019896,"MEAN_MOTION_DOT":-6.2e-07,"MEAN_MOTION_DDOT":0.0},{"OBJECT_NAME":"ONEWEB-0243","OBJECT_ID":"2021-045H","EPOCH":"2026-05-24T18:59:34.440576","MEAN_MOTION":13.15547665,"ECCENTRICITY":0.0001851,"INCLINATION":87.8991,"RA_OF_ASC_NODE":263.881,"ARG_OF_PERICENTER":83.5472,"MEAN_ANOMALY":276.5869,"EPHEMERIS_TYPE":0,"CLASSIFICATION_TYPE":"U","NORAD_CAT_ID":48774,"ELEMENT_SET_NO":999,"REV_AT_EPOCH":24128,"BSTAR":0.00027293,"MEAN_MOTION_DOT":1.16e-06,"MEAN_MOTION_DDOT":0.0},{"OBJECT_NAME":"ONEWEB-0222","OBJECT_ID":"2021-045J","EPOCH":"2026-05-24T18:35:36.829248","MEAN_MOTION":13.15546662,"ECCENTRICITY":0.0001625,"INCLINATION":87.8998,"RA_OF_ASC_NODE":263.8501,"ARG_OF_PERICENTER":99.1459,"MEAN_ANOMALY":260.9856,"EPHEMERIS_TYPE":0,"CLASSIFICATION_TYPE":"U","NORAD_CAT_ID":48775,"ELEMENT_SET_NO":999,"REV_AT_EPOCH":24132,"BSTAR":0.00037174,"MEAN_MOTION_DOT":1.53e-06,"MEAN_MOTION_DDOT":0.0},{"OBJECT_NAME":"ONEWEB-0244","OBJECT_ID":"2021-045K","EPOCH":"2026-05-24T19:13:15.533472","MEAN_MOTION":13.15546863,"ECCENTRICITY":0.0001803,"INCLINATION":87.9004,"RA_OF_ASC_NODE":263.838,"ARG_OF_PERICENTER":96.8296,"MEAN_ANOMALY":263.3039,"EPHEMERIS_TYPE":0,"CLASSIFICATION_TYPE":"U","NORAD_CAT_ID":48776,"ELEMENT_SET_NO":999,"REV_AT_EPOCH":24189,"BSTAR":-0.00024845,"MEAN_MOTION_DOT":-8.1e-07,"MEAN_MOTION_DDOT":0.0},{"OBJECT_NAME":"ONEWEB-0247","OBJECT_ID":"2021-045L","EPOCH":"2026-05-24T19:08:42.822240","MEAN_MOTION":13.15547445,"ECCENTRICITY":0.0001594,"INCLINATION":87.899,"RA_OF_ASC_NODE":263.874,"ARG_OF_PERICENTER":75.9569,"MEAN_ANOMALY":284.1739,"EPHEMERIS_TYPE":0,"CLASSIFICATION_TYPE":"U","NORAD_CAT_ID":48777,"ELEMENT_SET_NO":999,"REV_AT_EPOCH":24133,"BSTAR":-0.00034799,"MEAN_MOTION_DOT":-1.18e-06,"MEAN_MOTION_DDOT":0.0},{"OBJECT_NAME":"ONEWEB-0245","OBJECT_ID":"2021-045M","EPOCH":"2026-05-24T19:01:51.992832","MEAN_MOTION":13.15547198,"ECCENTRICITY":0.0001701,"INCLINATION":87.8999,"RA_OF_ASC_NODE":263.8522,"ARG_OF_PERICENTER":104.4367,"MEAN_ANOMALY":255.6952,"EPHEMERIS_TYPE":0,"CLASSIFICATION_TYPE":"U","NORAD_CAT_ID":48778,"ELEMENT_SET_NO":999,"REV_AT_EPOCH":24130,"BSTAR":8.271e-05,"MEAN_MOTION_DOT":4.4e-07,"MEAN_MOTION_DDOT":0.0}]